{
    "type": "FeatureCollection",
    "name": "Talisay Barangays",
    "description": "Approximate barangay boundaries for Talisay, Batangas. Generated for demonstration purposes.",
    "features": [
        {
            "type": "Feature",
            "properties": {
                "id": 1,
                "name": "Aya",
                "centroid": [
                    121.0094,
                    14.1046
                ]
            },
            "geometry": {
                "type": "Polygon",
                "coordinates": [
                    [
                        [
                            121.007,
                            14.1028
                        ],
                        [
                            121.0103,
                            14.101899999999999
                        ],
                        [
                            121.0121,
                            14.104
                        ],
                        [
                            121.0112,
                            14.1067
                        ],
                        [
                            121.0088,
                            14.1073
                        ],
                        [
                            121.0067,
                            14.1058
                        ],
                        [
                            121.007,
                            14.1028
                        ]
                    ]
                ]
            }
        },
        {
            "type": "Feature",
            "properties": {
                "id": 2,
                "name": "Balas",
                "centroid": [
                    121.0134,
                    14.0916
                ]
            },
            "geometry": {
                "type": "Polygon",
                "coordinates": [
                    [
                        [
                            121.01052,
                            14.08944
                        ],
                        [
                            121.01448,
                            14.08836
                        ],
                        [
                            121.01664000000001,
                            14.09088
                        ],
                        [
                            121.01556000000001,
                            14.09412
                        ],
                        [
                            121.01268,
                            14.09484
                        ],
                        [
                            121.01016,
                            14.09304
                        ],
                        [
                            121.01052,
                            14.08944
                        ]
                    ]
                ]
            }
        },
        {
            "type": "Feature",
            "properties": {
                "id": 3,
                "name": "Banga",
                "centroid": [
                    121.0064,
                    14.0996
                ]
            },
            "geometry": {
                "type": "Polygon",
                "coordinates": [
                    [
                        [
                            121.004,
                            14.097800000000001
                        ],
                        [
                            121.0073,
                            14.0969
                        ],
                        [
                            121.0091,
                            14.099
                        ],
                        [
                            121.0082,
                            14.101700000000001
                        ],
                        [
                            121.0058,
                            14.102300000000001
                        ],
                        [
                            121.0037,
                            14.100800000000001
                        ],
                        [
                            121.004,
                            14.097800000000001
                        ]
                    ]
                ]
            }
        },
        {
            "type": "Feature",
            "properties": {
                "id": 4,
                "name": "Buco",
                "centroid": [
                    121.0164,
                    14.0866
                ]
            },
            "geometry": {
                "type": "Polygon",
                "coordinates": [
                    [
                        [
                            121.01376,
                            14.084620000000001
                        ],
                        [
                            121.01739,
                            14.083630000000001
                        ],
                        [
                            121.01937000000001,
                            14.08594
                        ],
                        [
                            121.01838000000001,
                            14.08891
                        ],
                        [
                            121.01574000000001,
                            14.08957
                        ],
                        [
                            121.01343,
                            14.08792
                        ],
                        [
                            121.01376,
                            14.084620000000001
                        ]
                    ]
                ]
            }
        },
        {
            "type": "Feature",
            "properties": {
                "id": 5,
                "name": "Caloocan",
                "centroid": [
                    121.0264,
                    14.108600000000001
                ]
            },
            "geometry": {
                "type": "Polygon",
                "coordinates": [
                    [
                        [
                            121.024,
                            14.106800000000002
                        ],
                        [
                            121.0273,
                            14.1059
                        ],
                        [
                            121.0291,
                            14.108
                        ],
                        [
                            121.0282,
                            14.110700000000001
                        ],
                        [
                            121.02579999999999,
                            14.111300000000002
                        ],
                        [
                            121.02369999999999,
                            14.109800000000002
                        ],
                        [
                            121.024,
                            14.106800000000002
                        ]
                    ]
                ]
            }
        },
        {
            "type": "Feature",
            "properties": {
                "id": 6,
                "name": "Leynes",
                "centroid": [
                    121.0334,
                    14.101600000000001
                ]
            },
            "geometry": {
                "type": "Polygon",
                "coordinates": [
                    [
                        [
                            121.03028,
                            14.099260000000001
                        ],
                        [
                            121.03457,
                            14.098090000000001
                        ],
                        [
                            121.03691,
                            14.10082
                        ],
                        [
                            121.03574,
                            14.104330000000001
                        ],
                        [
                            121.03262,
                            14.105110000000002
                        ],
                        [
                            121.02989,
                            14.10316
                        ],
                        [
                            121.03028,
                            14.099260000000001
                        ]
                    ]
                ]
            }
        },
        {
            "type": "Feature",
            "properties": {
                "id": 7,
                "name": "Miranda",
                "centroid": [
                    121.0294,
                    14.088600000000001
                ]
            },
            "geometry": {
                "type": "Polygon",
                "coordinates": [
                    [
                        [
                            121.027,
                            14.086800000000002
                        ],
                        [
                            121.0303,
                            14.0859
                        ],
                        [
                            121.0321,
                            14.088000000000001
                        ],
                        [
                            121.0312,
                            14.090700000000002
                        ],
                        [
                            121.02879999999999,
                            14.091300000000002
                        ],
                        [
                            121.02669999999999,
                            14.089800000000002
                        ],
                        [
                            121.027,
                            14.086800000000002
                        ]
                    ]
                ]
            }
        },
        {
            "type": "Feature",
            "properties": {
                "id": 8,
                "name": "Poblacion Barangay 1",
                "centroid": [
                    121.0224,
                    14.0976
                ]
            },
            "geometry": {
                "type": "Polygon",
                "coordinates": [
                    [
                        [
                            121.02096,
                            14.09652
                        ],
                        [
                            121.02294,
                            14.095979999999999
                        ],
                        [
                            121.02402000000001,
                            14.09724
                        ],
                        [
                            121.02348,
                            14.09886
                        ],
                        [
                            121.02204,
                            14.09922
                        ],
                        [
                            121.02078,
                            14.09832
                        ],
                        [
                            121.02096,
                            14.09652
                        ]
                    ]
                ]
            }
        },
        {
            "type": "Feature",
            "properties": {
                "id": 9,
                "name": "Poblacion Barangay 2",
                "centroid": [
                    121.0244,
                    14.0976
                ]
            },
            "geometry": {
                "type": "Polygon",
                "coordinates": [
                    [
                        [
                            121.02296,
                            14.09652
                        ],
                        [
                            121.02494,
                            14.095979999999999
                        ],
                        [
                            121.02602,
                            14.09724
                        ],
                        [
                            121.02548,
                            14.09886
                        ],
                        [
                            121.02404,
                            14.09922
                        ],
                        [
                            121.02278,
                            14.09832
                        ],
                        [
                            121.02296,
                            14.09652
                        ]
                    ]
                ]
            }
        },
        {
            "type": "Feature",
            "properties": {
                "id": 10,
                "name": "Poblacion Barangay 3",
                "centroid": [
                    121.0224,
                    14.0996
                ]
            },
            "geometry": {
                "type": "Polygon",
                "coordinates": [
                    [
                        [
                            121.02096,
                            14.09852
                        ],
                        [
                            121.02294,
                            14.09798
                        ],
                        [
                            121.02402000000001,
                            14.09924
                        ],
                        [
                            121.02348,
                            14.10086
                        ],
                        [
                            121.02204,
                            14.101220000000001
                        ],
                        [
                            121.02078,
                            14.10032
                        ],
                        [
                            121.02096,
                            14.09852
                        ]
                    ]
                ]
            }
        },
        {
            "type": "Feature",
            "properties": {
                "id": 11,
                "name": "Poblacion Barangay 4",
                "centroid": [
                    121.0244,
                    14.0996
                ]
            },
            "geometry": {
                "type": "Polygon",
                "coordinates": [
                    [
                        [
                            121.02296,
                            14.09852
                        ],
                        [
                            121.02494,
                            14.09798
                        ],
                        [
                            121.02602,
                            14.09924
                        ],
                        [
                            121.02548,
                            14.10086
                        ],
                        [
                            121.02404,
                            14.101220000000001
                        ],
                        [
                            121.02278,
                            14.10032
                        ],
                        [
                            121.02296,
                            14.09852
                        ]
                    ]
                ]
            }
        },
        {
            "type": "Feature",
            "properties": {
                "id": 12,
                "name": "Poblacion Barangay 5",
                "centroid": [
                    121.0264,
                    14.098600000000001
                ]
            },
            "geometry": {
                "type": "Polygon",
                "coordinates": [
                    [
                        [
                            121.02496,
                            14.097520000000001
                        ],
                        [
                            121.02694,
                            14.09698
                        ],
                        [
                            121.02802,
                            14.09824
                        ],
                        [
                            121.02748,
                            14.099860000000001
                        ],
                        [
                            121.02604,
                            14.100220000000002
                        ],
                        [
                            121.02477999999999,
                            14.09932
                        ],
                        [
                            121.02496,
                            14.097520000000001
                        ]
                    ]
                ]
            }
        },
        {
            "type": "Feature",
            "properties": {
                "id": 13,
                "name": "Poblacion Barangay 6",
                "centroid": [
                    121.0234,
                    14.101600000000001
                ]
            },
            "geometry": {
                "type": "Polygon",
                "coordinates": [
                    [
                        [
                            121.02195999999999,
                            14.100520000000001
                        ],
                        [
                            121.02394,
                            14.09998
                        ],
                        [
                            121.02502,
                            14.10124
                        ],
                        [
                            121.02448,
                            14.102860000000002
                        ],
                        [
                            121.02304,
                            14.103220000000002
                        ],
                        [
                            121.02177999999999,
                            14.10232
                        ],
                        [
                            121.02195999999999,
                            14.100520000000001
                        ]
                    ]
                ]
            }
        },
        {
            "type": "Feature",
            "properties": {
                "id": 14,
                "name": "Poblacion Barangay 7",
                "centroid": [
                    121.0254,
                    14.1006
                ]
            },
            "geometry": {
                "type": "Polygon",
                "coordinates": [
                    [
                        [
                            121.02396,
                            14.09952
                        ],
                        [
                            121.02594,
                            14.09898
                        ],
                        [
                            121.02702000000001,
                            14.10024
                        ],
                        [
                            121.02648,
                            14.10186
                        ],
                        [
                            121.02504,
                            14.10222
                        ],
                        [
                            121.02378,
                            14.10132
                        ],
                        [
                            121.02396,
                            14.09952
                        ]
                    ]
                ]
            }
        },
        {
            "type": "Feature",
            "properties": {
                "id": 15,
                "name": "Poblacion Barangay 8",
                "centroid": [
                    121.0244,
                    14.1026
                ]
            },
            "geometry": {
                "type": "Polygon",
                "coordinates": [
                    [
                        [
                            121.02296,
                            14.10152
                        ],
                        [
                            121.02494,
                            14.10098
                        ],
                        [
                            121.02602,
                            14.10224
                        ],
                        [
                            121.02548,
                            14.103860000000001
                        ],
                        [
                            121.02404,
                            14.104220000000002
                        ],
                        [
                            121.02278,
                            14.10332
                        ],
                        [
                            121.02296,
                            14.10152
                        ]
                    ]
                ]
            }
        },
        {
            "type": "Feature",
            "properties": {
                "id": 16,
                "name": "Quiling",
                "centroid": [
                    121.0364,
                    14.0936
                ]
            },
            "geometry": {
                "type": "Polygon",
                "coordinates": [
                    [
                        [
                            121.03376,
                            14.09162
                        ],
                        [
                            121.03739,
                            14.09063
                        ],
                        [
                            121.03937,
                            14.09294
                        ],
                        [
                            121.03838,
                            14.09591
                        ],
                        [
                            121.03574,
                            14.09657
                        ],
                        [
                            121.03343,
                            14.09492
                        ],
                        [
                            121.03376,
                            14.09162
                        ]
                    ]
                ]
            }
        },
        {
            "type": "Feature",
            "properties": {
                "id": 17,
                "name": "Sampaloc",
                "centroid": [
                    121.0234,
                    14.0846
                ]
            },
            "geometry": {
                "type": "Polygon",
                "coordinates": [
                    [
                        [
                            121.021,
                            14.0828
                        ],
                        [
                            121.0243,
                            14.0819
                        ],
                        [
                            121.0261,
                            14.084
                        ],
                        [
                            121.0252,
                            14.0867
                        ],
                        [
                            121.02279999999999,
                            14.0873
                        ],
                        [
                            121.02069999999999,
                            14.0858
                        ],
                        [
                            121.021,
                            14.0828
                        ]
                    ]
                ]
            }
        },
        {
            "type": "Feature",
            "properties": {
                "id": 18,
                "name": "San Guillermo",
                "centroid": [
                    121.0114,
                    14.0816
                ]
            },
            "geometry": {
                "type": "Polygon",
                "coordinates": [
                    [
                        [
                            121.00851999999999,
                            14.07944
                        ],
                        [
                            121.01248,
                            14.07836
                        ],
                        [
                            121.01464,
                            14.08088
                        ],
                        [
                            121.01356,
                            14.08412
                        ],
                        [
                            121.01068,
                            14.08484
                        ],
                        [
                            121.00815999999999,
                            14.08304
                        ],
                        [
                            121.00851999999999,
                            14.07944
                        ]
                    ]
                ]
            }
        },
        {
            "type": "Feature",
            "properties": {
                "id": 19,
                "name": "Santa Maria",
                "centroid": [
                    121.0164,
                    14.1066
                ]
            },
            "geometry": {
                "type": "Polygon",
                "coordinates": [
                    [
                        [
                            121.01400000000001,
                            14.104800000000001
                        ],
                        [
                            121.0173,
                            14.1039
                        ],
                        [
                            121.01910000000001,
                            14.106
                        ],
                        [
                            121.01820000000001,
                            14.1087
                        ],
                        [
                            121.0158,
                            14.109300000000001
                        ],
                        [
                            121.0137,
                            14.107800000000001
                        ],
                        [
                            121.01400000000001,
                            14.104800000000001
                        ]
                    ]
                ]
            }
        },
        {
            "type": "Feature",
            "properties": {
                "id": 20,
                "name": "Tranca",
                "centroid": [
                    121.0294,
                    14.111600000000001
                ]
            },
            "geometry": {
                "type": "Polygon",
                "coordinates": [
                    [
                        [
                            121.02676,
                            14.109620000000001
                        ],
                        [
                            121.03039,
                            14.108630000000002
                        ],
                        [
                            121.03237,
                            14.110940000000001
                        ],
                        [
                            121.03138,
                            14.11391
                        ],
                        [
                            121.02874,
                            14.11457
                        ],
                        [
                            121.02642999999999,
                            14.11292
                        ],
                        [
                            121.02676,
                            14.109620000000001
                        ]
                    ]
                ]
            }
        },
        {
            "type": "Feature",
            "properties": {
                "id": 21,
                "name": "Tumaway",
                "centroid": [
                    121.0034,
                    14.0946
                ]
            },
            "geometry": {
                "type": "Polygon",
                "coordinates": [
                    [
                        [
                            121.001,
                            14.0928
                        ],
                        [
                            121.0043,
                            14.091899999999999
                        ],
                        [
                            121.0061,
                            14.094
                        ],
                        [
                            121.0052,
                            14.0967
                        ],
                        [
                            121.0028,
                            14.0973
                        ],
                        [
                            121.0007,
                            14.0958
                        ],
                        [
                            121.001,
                            14.0928
                        ]
                    ]
                ]
            }
        }
    ]
}